STARLINK-30559          
1 58039U 23156M   25212.90425684  .00008278  00000+0  42840-3 0  9997
2 58039  53.1588 114.8255 0000831  95.3710 264.7380 15.17054123101214
STARLINK-30555          
1 58040U 23156N   25212.46735988 -.00000635  00000+0 -96542-5 0  9992
2 58040  53.1603 115.6732 0001713  78.8851 281.2342 15.29350889101162
STARLINK-30542          
1 58041U 23156P   25212.88207811  .00001438  00000+0  60673-4 0  9993
2 58041  53.1610  23.8635 0001165  75.0556 285.0573 15.30194804102507
STARLINK-30563          
1 58042U 23156Q   25212.88044392  .00000406  00000+0  25821-4 0  9997
2 58042  53.1606  21.3969 0001170  74.9094 285.2036 15.30191335102543
STARLINK-30564          
1 58043U 23156R   25212.87158721 -.00009410  00000+0 -30603-3 0  9998
2 58043  53.1610  24.1685 0001414  50.7835 309.3292 15.30194140102506
STARLINK-30547          
1 58044U 23156S   25212.86865572 -.00001562  00000+0 -41819-4 0  9999
2 58044  53.1597 113.8659 0001425  89.1605 270.9559 15.29353841101221
STARLINK-30550          
1 58045U 23156T   25212.58589724 -.00003400  00000+0 -10285-3 0  9996
2 58045  53.1606 308.3638 0001226  89.6654 270.4487 15.30160775103523
STARLINK-30548          
1 58046U 23156U   25212.95348104  .00000057  00000+0  14044-4 0  9994
2 58046  53.1588 113.7212 0000938  96.8163 263.2945 15.30192957101189
STARLINK-30529          
1 58047U 23156V   25212.95855229 -.00000807  00000+0 -15636-4 0  9999
2 58047  53.1597 113.7484 0001430 105.7183 254.3975 15.29352225101189
STARLINK-30554          
1 58048U 23156W   25212.91195139 -.00002103  00000+0 -60555-4 0  9994
2 58048  53.1606 113.4717 0001698 105.3122 254.8066 15.29350591101182
STARLINK-30568          
1 58051U 23158A   25212.88787656 -.00000289  00000+0 -63073-5 0  9999
2 58051  43.0033 150.3997 0001004 263.0792  96.9937 15.02533520100147
STARLINK-30575          
1 58052U 23158B   25212.91668981 -.00011923  00000+0 -86894-3 0  9994
2 58052  43.0012 150.3290 0000986 256.3031 223.7266 15.02541283  5649
STARLINK-30577          
1 58053U 23158C   25212.02033059 -.00001062  00000+0 -63571-4 0  9990
2 58053  43.0036 155.0546 0000686 243.1553 116.9219 15.02531514100184
STARLINK-30566          
1 58054U 23158D   25212.87788071  .00083465  00000+0  61077-2 0  9997
2 58054  43.0052 150.3213 0001788 207.6146 152.4602 15.02614934100313
STARLINK-30544          
1 58055U 23158E   25212.19645887 -.00000247  00000+0 -32174-5 0  9998
2 58055  43.0030 153.8100 0000975 269.3417  90.7313 15.02533694100211
STARLINK-30553          
1 58056U 23158F   25212.87122857  .00000318  00000+0  38599-4 0  9994
2 58056  42.9993 150.2728 0000716 268.5738  91.5022 15.02532184100315
STARLINK-30541          
1 58057U 23158G   25212.87455801 -.00000305  00000+0 -75379-5 0  9999
2 58057  43.0021 150.2988 0000912 270.7474  89.3264 15.02533311100314
