[{"OBJECT_NAME":"STARLINK-30559","OBJECT_ID":"2023-156M","EPOCH":"2025-07-31T21:42:07.790976","MEAN_MOTION":15.17054123,"ECCENTRICITY":8.31e-5,"INCLINATION":53.1588,"RA_OF_ASC_NODE":114.8255,"ARG_OF_PERICENTER":95.371,"MEAN_ANOMALY":264.738,"EPHEMERIS_TYPE":0,"CLASSIFICATION_TYPE":"U","NORAD_CAT_ID":58039,"ELEMENT_SET_NO":999,"REV_AT_EPOCH":10121,"BSTAR":0.0004284,"MEAN_MOTION_DOT":8.278e-5,"MEAN_MOTION_DDOT":0},{"OBJECT_NAME":"STARLINK-30555","OBJECT_ID":"2023-156N","EPOCH":"2025-07-31T11:12:59.893632","MEAN_MOTION":15.29350889,"ECCENTRICITY":0.0001713,"INCLINATION":53.1603,"RA_OF_ASC_NODE":115.6732,"ARG_OF_PERICENTER":78.8851,"MEAN_ANOMALY":281.2342,"EPHEMERIS_TYPE":0,"CLASSIFICATION_TYPE":"U","NORAD_CAT_ID":58040,"ELEMENT_SET_NO":999,"REV_AT_EPOCH":10116,"BSTAR":-9.6542e-6,"MEAN_MOTION_DOT":-6.35e-6,"MEAN_MOTION_DDOT":0},{"OBJECT_NAME":"STARLINK-30542","OBJECT_ID":"2023-156P","EPOCH":"2025-07-31T21:10:11.548704","MEAN_MOTION":15.30194804,"ECCENTRICITY":0.0001165,"INCLINATION":53.161,"RA_OF_ASC_NODE":23.8635,"ARG_OF_PERICENTER":75.0556,"MEAN_ANOMALY":285.0573,"EPHEMERIS_TYPE":0,"CLASSIFICATION_TYPE":"U","NORAD_CAT_ID":58041,"ELEMENT_SET_NO":999,"REV_AT_EPOCH":10250,"BSTAR":6.0673e-5,"MEAN_MOTION_DOT":1.438e-5,"MEAN_MOTION_DDOT":0},{"OBJECT_NAME":"STARLINK-30563","OBJECT_ID":"2023-156Q","EPOCH":"2025-07-31T21:07:50.354688","MEAN_MOTION":15.30191335,"ECCENTRICITY":0.000117,"INCLINATION":53.1606,"RA_OF_ASC_NODE":21.3969,"ARG_OF_PERICENTER":74.9094,"MEAN_ANOMALY":285.2036,"EPHEMERIS_TYPE":0,"CLASSIFICATION_TYPE":"U","NORAD_CAT_ID":58042,"ELEMENT_SET_NO":999,"REV_AT_EPOCH":10254,"BSTAR":2.5821e-5,"MEAN_MOTION_DOT":4.06e-6,"MEAN_MOTION_DDOT":0},{"OBJECT_NAME":"STARLINK-30564","OBJECT_ID":"2023-156R","EPOCH":"2025-07-31T20:55:05.134944","MEAN_MOTION":15.3019414,"ECCENTRICITY":0.0001414,"INCLINATION":53.161,"RA_OF_ASC_NODE":24.1685,"ARG_OF_PERICENTER":50.7835,"MEAN_ANOMALY":309.3292,"EPHEMERIS_TYPE":0,"CLASSIFICATION_TYPE":"U","NORAD_CAT_ID":58043,"ELEMENT_SET_NO":999,"REV_AT_EPOCH":10250,"BSTAR":-0.00030603,"MEAN_MOTION_DOT":-9.41e-5,"MEAN_MOTION_DDOT":0},{"OBJECT_NAME":"STARLINK-30547","OBJECT_ID":"2023-156S","EPOCH":"2025-07-31T20:50:51.854208","MEAN_MOTION":15.29353841,"ECCENTRICITY":0.0001425,"INCLINATION":53.1597,"RA_OF_ASC_NODE":113.8659,"ARG_OF_PERICENTER":89.1605,"MEAN_ANOMALY":270.9559,"EPHEMERIS_TYPE":0,"CLASSIFICATION_TYPE":"U","NORAD_CAT_ID":58044,"ELEMENT_SET_NO":999,"REV_AT_EPOCH":10122,"BSTAR":-4.1819e-5,"MEAN_MOTION_DOT":-1.562e-5,"MEAN_MOTION_DDOT":0},{"OBJECT_NAME":"STARLINK-30550","OBJECT_ID":"2023-156T","EPOCH":"2025-07-31T14:03:41.521536","MEAN_MOTION":15.30160775,"ECCENTRICITY":0.0001226,"INCLINATION":53.1606,"RA_OF_ASC_NODE":308.3638,"ARG_OF_PERICENTER":89.6654,"MEAN_ANOMALY":270.4487,"EPHEMERIS_TYPE":0,"CLASSIFICATION_TYPE":"U","NORAD_CAT_ID":58045,"ELEMENT_SET_NO":999,"REV_AT_EPOCH":10352,"BSTAR":-0.00010285,"MEAN_MOTION_DOT":-3.4e-5,"MEAN_MOTION_DDOT":0},{"OBJECT_NAME":"STARLINK-30548","OBJECT_ID":"2023-156U","EPOCH":"2025-07-31T22:53:00.761856","MEAN_MOTION":15.30192957,"ECCENTRICITY":9.38e-5,"INCLINATION":53.1588,"RA_OF_ASC_NODE":113.7212,"ARG_OF_PERICENTER":96.8163,"MEAN_ANOMALY":263.2945,"EPHEMERIS_TYPE":0,"CLASSIFICATION_TYPE":"U","NORAD_CAT_ID":58046,"ELEMENT_SET_NO":999,"REV_AT_EPOCH":10118,"BSTAR":1.4044e-5,"MEAN_MOTION_DOT":5.7e-7,"MEAN_MOTION_DDOT":0},{"OBJECT_NAME":"STARLINK-30529","OBJECT_ID":"2023-156V","EPOCH":"2025-07-31T23:00:18.917856","MEAN_MOTION":15.29352225,"ECCENTRICITY":0.000143,"INCLINATION":53.1597,"RA_OF_ASC_NODE":113.7484,"ARG_OF_PERICENTER":105.7183,"MEAN_ANOMALY":254.3975,"EPHEMERIS_TYPE":0,"CLASSIFICATION_TYPE":"U","NORAD_CAT_ID":58047,"ELEMENT_SET_NO":999,"REV_AT_EPOCH":10118,"BSTAR":-1.5636e-5,"MEAN_MOTION_DOT":-8.07e-6,"MEAN_MOTION_DDOT":0},{"OBJECT_NAME":"STARLINK-30554","OBJECT_ID":"2023-156W","EPOCH":"2025-07-31T21:53:12.600096","MEAN_MOTION":15.29350591,"ECCENTRICITY":0.0001698,"INCLINATION":53.1606,"RA_OF_ASC_NODE":113.4717,"ARG_OF_PERICENTER":105.3122,"MEAN_ANOMALY":254.8066,"EPHEMERIS_TYPE":0,"CLASSIFICATION_TYPE":"U","NORAD_CAT_ID":58048,"ELEMENT_SET_NO":999,"REV_AT_EPOCH":10118,"BSTAR":-6.0555e-5,"MEAN_MOTION_DOT":-2.103e-5,"MEAN_MOTION_DDOT":0},{"OBJECT_NAME":"STARLINK-30568","OBJECT_ID":"2023-158A","EPOCH":"2025-07-31T21:18:32.534784","MEAN_MOTION":15.0253352,"ECCENTRICITY":0.0001004,"INCLINATION":43.0033,"RA_OF_ASC_NODE":150.3997,"ARG_OF_PERICENTER":263.0792,"MEAN_ANOMALY":96.9937,"EPHEMERIS_TYPE":0,"CLASSIFICATION_TYPE":"U","NORAD_CAT_ID":58051,"ELEMENT_SET_NO":999,"REV_AT_EPOCH":10014,"BSTAR":-6.3073e-6,"MEAN_MOTION_DOT":-2.89e-6,"MEAN_MOTION_DDOT":0},{"OBJECT_NAME":"STARLINK-30575","OBJECT_ID":"2023-158B","EPOCH":"2025-07-31T22:00:01.999584","MEAN_MOTION":15.02541283,"ECCENTRICITY":9.86e-5,"INCLINATION":43.0012,"RA_OF_ASC_NODE":150.329,"ARG_OF_PERICENTER":256.3031,"MEAN_ANOMALY":223.7266,"EPHEMERIS_TYPE":0,"CLASSIFICATION_TYPE":"U","NORAD_CAT_ID":58052,"ELEMENT_SET_NO":999,"REV_AT_EPOCH":564,"BSTAR":-0.00086894,"MEAN_MOTION_DOT":-0.00011923,"MEAN_MOTION_DDOT":0},{"OBJECT_NAME":"STARLINK-30577","OBJECT_ID":"2023-158C","EPOCH":"2025-07-31T00:29:16.562976","MEAN_MOTION":15.02531514,"ECCENTRICITY":6.86e-5,"INCLINATION":43.0036,"RA_OF_ASC_NODE":155.0546,"ARG_OF_PERICENTER":243.1553,"MEAN_ANOMALY":116.9219,"EPHEMERIS_TYPE":0,"CLASSIFICATION_TYPE":"U","NORAD_CAT_ID":58053,"ELEMENT_SET_NO":999,"REV_AT_EPOCH":10018,"BSTAR":-6.3571e-5,"MEAN_MOTION_DOT":-1.062e-5,"MEAN_MOTION_DDOT":0},{"OBJECT_NAME":"STARLINK-30566","OBJECT_ID":"2023-158D","EPOCH":"2025-07-31T21:04:08.893344","MEAN_MOTION":15.02614934,"ECCENTRICITY":0.0001788,"INCLINATION":43.0052,"RA_OF_ASC_NODE":150.3213,"ARG_OF_PERICENTER":207.6146,"MEAN_ANOMALY":152.4602,"EPHEMERIS_TYPE":0,"CLASSIFICATION_TYPE":"U","NORAD_CAT_ID":58054,"ELEMENT_SET_NO":999,"REV_AT_EPOCH":10031,"BSTAR":0.0061077,"MEAN_MOTION_DOT":0.00083465,"MEAN_MOTION_DDOT":0},{"OBJECT_NAME":"STARLINK-30544","OBJECT_ID":"2023-158E","EPOCH":"2025-07-31T04:42:54.046368","MEAN_MOTION":15.02533694,"ECCENTRICITY":9.75e-5,"INCLINATION":43.003,"RA_OF_ASC_NODE":153.81,"ARG_OF_PERICENTER":269.3417,"MEAN_ANOMALY":90.7313,"EPHEMERIS_TYPE":0,"CLASSIFICATION_TYPE":"U","NORAD_CAT_ID":58055,"ELEMENT_SET_NO":999,"REV_AT_EPOCH":10021,"BSTAR":-3.2174e-6,"MEAN_MOTION_DOT":-2.47e-6,"MEAN_MOTION_DDOT":0},{"OBJECT_NAME":"STARLINK-30553","OBJECT_ID":"2023-158F","EPOCH":"2025-07-31T20:54:34.148448","MEAN_MOTION":15.02532184,"ECCENTRICITY":7.16e-5,"INCLINATION":42.9993,"RA_OF_ASC_NODE":150.2728,"ARG_OF_PERICENTER":268.5738,"MEAN_ANOMALY":91.5022,"EPHEMERIS_TYPE":0,"CLASSIFICATION_TYPE":"U","NORAD_CAT_ID":58056,"ELEMENT_SET_NO":999,"REV_AT_EPOCH":10031,"BSTAR":3.8599e-5,"MEAN_MOTION_DOT":3.18e-6,"MEAN_MOTION_DDOT":0},{"OBJECT_NAME":"STARLINK-30541","OBJECT_ID":"2023-158G","EPOCH":"2025-07-31T20:59:21.812064","MEAN_MOTION":15.02533311,"ECCENTRICITY":9.12e-5,"INCLINATION":43.0021,"RA_OF_ASC_NODE":150.2988,"ARG_OF_PERICENTER":270.7474,"MEAN_ANOMALY":89.3264,"EPHEMERIS_TYPE":0,"CLASSIFICATION_TYPE":"U","NORAD_CAT_ID":58057,"ELEMENT_SET_NO":999,"REV_AT_EPOCH":10031,"BSTAR":-7.5379e-6,"MEAN_MOTION_DOT":-3.05e-6,"MEAN_MOTION_DDOT":0}]
